[
  {
    "Hochschule": "Akademie der Bildenden Künste München",
    "Straße": "Akademiestrasse 2-4",
    "PLZ": 80799,
    "Ort": "München",
    "Latitude": "48.153.131",
    "Longitude": "11.579.151"
  },
  {
    "Hochschule": "AMD Akademie Mode & Design",
    "Straße": "Infanteriestraße 11a",
    "PLZ": 80797,
    "Ort": "München",
    "Latitude": "48.158.961",
    "Longitude": "11.554.124"
  },
  {
    "Hochschule": "Campus M21",
    "Straße": "Dachauer Straße 124",
    "PLZ": 80637,
    "Ort": "München",
    "Latitude": "48.162.400",
    "Longitude": "11.543.940"
  },
  {
    "Hochschule": "Fachhochschule für öffentliche Verwaltung und Rechtspflege in Bayern",
    "Straße": "Wagmüllerstraße 20",
    "PLZ": 80539,
    "Ort": "München",
    "Latitude": "48.142.370",
    "Longitude": "11.588.674"
  },
  {
    "Hochschule": "FOM Hochschule für Oekonomie & Management",
    "Straße": "Arnulfstraße 30",
    "PLZ": 80335,
    "Ort": "München",
    "Latitude": "48.143.071",
    "Longitude": "11.555.860"
  },
  {
    "Hochschule": "Globe Business College Munich",
    "Straße": "Arnulfstrasse 58",
    "PLZ": 80335,
    "Ort": "München",
    "Latitude": "48.143.601",
    "Longitude": "11.549.617"
  },
  {
    "Hochschule": "H:G Hochschule für Gesundheit & Sport, Technik & Kunst",
    "Straße": "Steinheilstraße 4",
    "PLZ": 85737,
    "Ort": "Ismaning",
    "Latitude": "48.229.130",
    "Longitude": "11.680.940"
  },
  {
    "Hochschule": "Hessische Berufsakademie",
    "Straße": "Arnulfstraße 30",
    "PLZ": 80335,
    "Ort": "München",
    "Latitude": "48.143.071",
    "Longitude": "11.555.860"
  },
  {
    "Hochschule": "Hochschule der Bayerischen Wirtschaft (HDBW)",
    "Straße": "Konrad-Zuse-Platz 8",
    "PLZ": 81829,
    "Ort": "München",
    "Latitude": "48.137.490",
    "Longitude": "11.689.084"
  },
  {
    "Hochschule": "Hochschule Fresenius",
    "Straße": "Infanteriestraße 11a",
    "PLZ": 80797,
    "Ort": "München",
    "Latitude": "48.158.961",
    "Longitude": "11.554.124"
  },
  {
    "Hochschule": "Hochschule für Angewandte Sprachen des SDI München",
    "Straße": "Baierbrunner Straße 28",
    "PLZ": 81379,
    "Ort": "München",
    "Latitude": "48.096.902",
    "Longitude": "11.531.920"
  },
  {
    "Hochschule": "Hochschule für Fernsehen und Film",
    "Straße": "Gabelsbergerstraße 33",
    "PLZ": 80333,
    "Ort": "München",
    "Latitude": "48.150.691",
    "Longitude": "11.558.942"
  },
  {
    "Hochschule": "Hochschule für Musik und Theater München",
    "Straße": "Arcisstraße 12",
    "PLZ": 80333,
    "Ort": "München",
    "Latitude": "48.146.010",
    "Longitude": "11.567.310"
  },
  {
    "Hochschule": "Hochschule für Philosophie",
    "Straße": "Kaulbachstraße 31",
    "PLZ": 80539,
    "Ort": "München",
    "Latitude": "48.148.820",
    "Longitude": "11.582.920"
  },
  {
    "Hochschule": "Hochschule Macromedia, University of Applied Sciences",
    "Straße": "Gollierstraße 4",
    "PLZ": 80339,
    "Ort": "München",
    "Latitude": "48.136.030",
    "Longitude": "11.547.505"
  },
  {
    "Hochschule": "Hochschule München",
    "Straße": "Lothstraße 34",
    "PLZ": 80335,
    "Ort": "München",
    "Latitude": "48.155.114",
    "Longitude": "11.553.648"
  },
  {
    "Hochschule": "International School of Management",
    "Straße": "Karlstraße 35",
    "PLZ": 80333,
    "Ort": "München",
    "Latitude": "48.144.250",
    "Longitude": "11.561.458"
  },
  {
    "Hochschule": "Internationale Berufsakademie der F+U Unternehmensgruppe",
    "Straße": "Dessauer Straße 6",
    "PLZ": 80992,
    "Ort": "München",
    "Latitude": "48.180.260",
    "Longitude": "11.530.720"
  },
  {
    "Hochschule": "IUBH Duales Studium",
    "Straße": "Berg-am-Laim-Straße 47",
    "PLZ": 81673,
    "Ort": "München",
    "Latitude": "48.131.577",
    "Longitude": "11.614.875"
  },
  {
    "Hochschule": "Katholische Stiftungsfachhochschule München",
    "Straße": "Preysingstraße 83",
    "PLZ": 81667,
    "Ort": "München",
    "Latitude": "48.131.930",
    "Longitude": "11.601.630"
  },
  {
    "Hochschule": "Ludwig-Maximilians-Universität München",
    "Straße": "Geschwister-Scholl-Platz 1",
    "PLZ": 80539,
    "Ort": "München",
    "Latitude": "48.150.479",
    "Longitude": "11.580.015"
  },
  {
    "Hochschule": "Mediadesign Hochschule für Design und Informatik",
    "Straße": "Claudius-Keller-Straße 7",
    "PLZ": 81669,
    "Ort": "München",
    "Latitude": "48.116.568",
    "Longitude": "11.603.609"
  },
  {
    "Hochschule": "Munich Business School",
    "Straße": "Elsenheimerstraße 61",
    "PLZ": 80687,
    "Ort": "München",
    "Latitude": "48.135.976",
    "Longitude": "11.524.539"
  },
  {
    "Hochschule": "Technische Universität München",
    "Straße": "Arcisstraße 21",
    "PLZ": 80333,
    "Ort": "München",
    "Latitude": "48.149.350",
    "Longitude": "11.567.826"
  },
  {
    "Hochschule": "Universität der Bundeswehr München",
    "Straße": "Werner-Heisenberg-Weg 39",
    "PLZ": 85577,
    "Ort": "Neubiberg",
    "Latitude": "48.078.538",
    "Longitude": "11.650.202"
  }
]