[
  {
    "Name": "Adalbertstraße ",
    "Straße": "Adalbertstraße 41",
    "PLZ": 80799,
    "Ort": "München",
    "Latitude": "48.153055",
    "Longitude": "11.575189",
    "Typ": "Wohnheim",
    "MieteMinimal": "212,90",
    "MieteMaximal": "591,30",
    "DurchschnittlicheWartezeit": "3,5",
    "Zimmerarten": ""
  },
  {
    "Name": "Agnes-/Adelheidstraße ",
    "Straße": "Adelheidstraße 13",
    "PLZ": 80798,
    "Ort": "München",
    "Latitude": "48.15729",
    "Longitude": "11.567333",
    "Typ": "Wohnheim",
    "MieteMinimal": "280,70",
    "MieteMaximal": "591,30",
    "DurchschnittlicheWartezeit": "3,5",
    "Zimmerarten": ""
  },
  {
    "Name": "Agnes-/Adelheidstraße ",
    "Straße": "Agnesstraße 27, 31-35",
    "PLZ": 80798,
    "Ort": "München",
    "Latitude": "48.157652",
    "Longitude": "11.567135",
    "Typ": "Wohnheim",
    "MieteMinimal": "280,70",
    "MieteMaximal": "591,30",
    "DurchschnittlicheWartezeit": "3,5",
    "Zimmerarten": ""
  },
  {
    "Name": "Biedersteiner Straße ",
    "Straße": "Biedersteiner Straße 22-30a",
    "PLZ": 80802,
    "Ort": "München",
    "Latitude": "48.163501",
    "Longitude": "11.593299",
    "Typ": "Wohnheim",
    "MieteMinimal": "267,70",
    "MieteMaximal": "326,70",
    "DurchschnittlicheWartezeit": "3",
    "Zimmerarten": ""
  },
  {
    "Name": "Chiemgaustraße ",
    "Straße": "Traunsteiner Straße 1-13",
    "PLZ": 81549,
    "Ort": "München",
    "Latitude": "48.10501",
    "Longitude": "11.587658",
    "Typ": "Wohnheim",
    "MieteMinimal": "242,80",
    "MieteMaximal": "320,90",
    "DurchschnittlicheWartezeit": "1,5",
    "Zimmerarten": ""
  },
  {
    "Name": "Chiemgaustraße ",
    "Straße": "Sintpertstraße 42-50",
    "PLZ": 81549,
    "Ort": "München",
    "Latitude": "48.10633",
    "Longitude": "11.58855",
    "Typ": "Wohnheim",
    "MieteMinimal": "242,80",
    "MieteMaximal": "320,90",
    "DurchschnittlicheWartezeit": "1,5",
    "Zimmerarten": ""
  },
  {
    "Name": "Dachauer Straße ",
    "Straße": "Dachauer Straße 25",
    "PLZ": 80335,
    "Ort": "München",
    "Latitude": "48.1444",
    "Longitude": "11.559522",
    "Typ": "Wohnheim",
    "MieteMinimal": "282,40",
    "MieteMaximal": "336,80",
    "DurchschnittlicheWartezeit": "3,5",
    "Zimmerarten": ""
  },
  {
    "Name": "Enzianstraße (Garching II) ",
    "Straße": "Enzianstr. 1-3",
    "PLZ": 85748,
    "Ort": "Garching",
    "Latitude": "48.25784",
    "Longitude": "11.65554",
    "Typ": "Wohnheim",
    "MieteMinimal": "247,10",
    "MieteMaximal": "269,00",
    "DurchschnittlicheWartezeit": "2,5",
    "Zimmerarten": ""
  },
  {
    "Name": "Felsennelkenanger ",
    "Straße": "Felsennelkenanger 7–21",
    "PLZ": 80937,
    "Ort": "München",
    "Latitude": "48.209738",
    "Longitude": "11.56444",
    "Typ": "Wohnheim",
    "MieteMinimal": "298,20",
    "MieteMaximal": "589,70",
    "DurchschnittlicheWartezeit": "2,5",
    "Zimmerarten": ""
  },
  {
    "Name": "Giggenhauserstraße (Weihenstephan II) ",
    "Straße": "Giggenhauser Straße 25a-c",
    "PLZ": 85354,
    "Ort": "Freising",
    "Latitude": "48.39489",
    "Longitude": "11.71276",
    "Typ": "Wohnheim",
    "MieteMinimal": "211,40",
    "MieteMaximal": "224,00",
    "DurchschnittlicheWartezeit": "1,5",
    "Zimmerarten": ""
  },
  {
    "Name": "Giggenhauserstraße (Weihenstephan IV) ",
    "Straße": "Giggenhauser Straße 27-33",
    "PLZ": 85354,
    "Ort": "Freising",
    "Latitude": "48.39458",
    "Longitude": "11.71195",
    "Typ": "Wohnheim",
    "MieteMinimal": "250,30",
    "MieteMaximal": "263,40",
    "DurchschnittlicheWartezeit": "1",
    "Zimmerarten": ""
  },
  {
    "Name": "Heidemannstraße ",
    "Straße": "Paul-Hindemith-Allee 4, 6",
    "PLZ": 80939,
    "Ort": "München",
    "Latitude": "48.200912",
    "Longitude": "11.606591",
    "Typ": "Wohnheim",
    "MieteMinimal": "261,30",
    "MieteMaximal": "633,60",
    "DurchschnittlicheWartezeit": "3",
    "Zimmerarten": ""
  },
  {
    "Name": "Heidemannstraße ",
    "Straße": "Karl-Köglsperger-Straße 3-9",
    "PLZ": 80939,
    "Ort": "München",
    "Latitude": "48.20129",
    "Longitude": "11.60772",
    "Typ": "Wohnheim",
    "MieteMinimal": "261,30",
    "MieteMaximal": "633,60",
    "DurchschnittlicheWartezeit": "3",
    "Zimmerarten": ""
  },
  {
    "Name": "Heiglhofstraße ",
    "Straße": "Heiglhofstraße 64, 65",
    "PLZ": 81377,
    "Ort": "München",
    "Latitude": "48.10728",
    "Longitude": "11.47713",
    "Typ": "Wohnheim",
    "MieteMinimal": "286,10",
    "MieteMaximal": "734,20",
    "DurchschnittlicheWartezeit": "2",
    "Zimmerarten": ""
  },
  {
    "Name": "Jochbergweg (Garching I) ",
    "Straße": "Jochbergweg 1",
    "PLZ": 85748,
    "Ort": "Garching",
    "Latitude": "48.252718",
    "Longitude": "11.659599",
    "Typ": "Wohnheim",
    "MieteMinimal": "255,90",
    "MieteMaximal": "287,80",
    "DurchschnittlicheWartezeit": "2,5",
    "Zimmerarten": ""
  },
  {
    "Name": "Josef-Wirth-Weg ",
    "Straße": "Josef-Wirth-Weg 19",
    "PLZ": 80939,
    "Ort": "München",
    "Latitude": "48.19975",
    "Longitude": "11.62531",
    "Typ": "Wohnheim",
    "MieteMinimal": "315,00",
    "MieteMaximal": "375,00",
    "DurchschnittlicheWartezeit": "2,5",
    "Zimmerarten": ""
  },
  {
    "Name": "Kaulbachstraße ",
    "Straße": "Kaulbachstraße 49",
    "PLZ": 80539,
    "Ort": "München",
    "Latitude": "48.15111",
    "Longitude": "11.584151",
    "Typ": "Wohnheim",
    "MieteMinimal": "199,40",
    "MieteMaximal": "336,70",
    "DurchschnittlicheWartezeit": "3,5",
    "Zimmerarten": ""
  },
  {
    "Name": "Kreittmayrstraße ",
    "Straße": "Kreittmayrstraße 14",
    "PLZ": 80335,
    "Ort": "München",
    "Latitude": "48.15108",
    "Longitude": "11.555988",
    "Typ": "Wohnheim",
    "MieteMinimal": "264,20",
    "MieteMaximal": "554,10",
    "DurchschnittlicheWartezeit": "4",
    "Zimmerarten": ""
  },
  {
    "Name": "Lange Point (Weihenstephan III) ",
    "Straße": "Lange Point 1-35",
    "PLZ": 85354,
    "Ort": "Freising",
    "Latitude": "48.404057",
    "Longitude": "11.732922",
    "Typ": "Wohnheim",
    "MieteMinimal": "251,00",
    "MieteMaximal": "450,60",
    "DurchschnittlicheWartezeit": "1,5",
    "Zimmerarten": ""
  },
  {
    "Name": "Lothstraße ",
    "Straße": "Lothstraße 62",
    "PLZ": 80335,
    "Ort": "München",
    "Latitude": "48.154382",
    "Longitude": "11.554321",
    "Typ": "Wohnheim",
    "MieteMinimal": "351,00",
    "MieteMaximal": "414,90",
    "DurchschnittlicheWartezeit": "2,5",
    "Zimmerarten": ""
  },
  {
    "Name": "Marienberger Straße (Rosenheim I) ",
    "Straße": "Marienberger Straße 36-40",
    "PLZ": 83024,
    "Ort": "Rosenheim",
    "Latitude": "47.868354",
    "Longitude": "12.108043",
    "Typ": "Wohnheim",
    "MieteMinimal": "179,10",
    "MieteMaximal": "233,20",
    "DurchschnittlicheWartezeit": "2",
    "Zimmerarten": ""
  },
  {
    "Name": "Max-Bill-Straße ",
    "Straße": "Max-Bill-Straße 67",
    "PLZ": 80807,
    "Ort": "München",
    "Latitude": "48.186965",
    "Longitude": "11.598528",
    "Typ": "Wohnheim",
    "MieteMinimal": "328,80",
    "MieteMaximal": "457,70",
    "DurchschnittlicheWartezeit": "3,5",
    "Zimmerarten": ""
  },
  {
    "Name": "Notburga-/Volksgartenstraße",
    "Straße": "Notburgastraße 19-21",
    "PLZ": 80639,
    "Ort": "München",
    "Latitude": "48.15657",
    "Longitude": "11.51182",
    "Typ": "Wohnheim",
    "MieteMinimal": "266,00",
    "MieteMaximal": "364,70",
    "DurchschnittlicheWartezeit": "1,5",
    "Zimmerarten": ""
  },
  {
    "Name": "Notburga-/Volksgartenstraße",
    "Straße": "Volksgartenstraße 10",
    "PLZ": 80639,
    "Ort": "München",
    "Latitude": "48.15651",
    "Longitude": "11.51276",
    "Typ": "Wohnheim",
    "MieteMinimal": "266,00",
    "MieteMaximal": "364,70",
    "DurchschnittlicheWartezeit": "1,5",
    "Zimmerarten": ""
  },
  {
    "Name": "Oberschleißheim ",
    "Straße": "Am Schäferanger 9-15",
    "PLZ": 85764,
    "Ort": "Oberschleißheim",
    "Latitude": "48.256106",
    "Longitude": "11.545519",
    "Typ": "Wohnheim",
    "MieteMinimal": "271,70",
    "MieteMaximal": "297,40",
    "DurchschnittlicheWartezeit": "3",
    "Zimmerarten": ""
  },
  {
    "Name": "Sauerbruchstraße ",
    "Straße": "Sauerbruchstraße 59, 61",
    "PLZ": 81377,
    "Ort": "München",
    "Latitude": "48.110225",
    "Longitude": "11.476637",
    "Typ": "Wohnheim",
    "MieteMinimal": "313,00",
    "MieteMaximal": "313,00",
    "DurchschnittlicheWartezeit": "2",
    "Zimmerarten": ""
  },
  {
    "Name": "Sauerbruchstraße ",
    "Straße": "Heiglhofstraße 44, 46",
    "PLZ": 81377,
    "Ort": "München",
    "Latitude": "48.10982",
    "Longitude": "11.477",
    "Typ": "Wohnheim",
    "MieteMinimal": "286,10",
    "MieteMaximal": "734,20",
    "DurchschnittlicheWartezeit": "2",
    "Zimmerarten": ""
  },
  {
    "Name": "Schwere-Reiter-Straße ",
    "Straße": "Schwere-Reiter-Straße 35",
    "PLZ": 80797,
    "Ort": "München",
    "Latitude": "48.162298",
    "Longitude": "11.555434",
    "Typ": "Wohnheim",
    "MieteMinimal": "265,20",
    "MieteMaximal": "307,80",
    "DurchschnittlicheWartezeit": "3",
    "Zimmerarten": ""
  },
  {
    "Name": "Stiftsbogen ",
    "Straße": "Schröfelhofstraße 4-26a",
    "PLZ": 81375,
    "Ort": "München",
    "Latitude": "48.122888",
    "Longitude": "11.492369",
    "Typ": "Wohnheim",
    "MieteMinimal": "270,10",
    "MieteMaximal": "314,10",
    "DurchschnittlicheWartezeit": "2",
    "Zimmerarten": ""
  },
  {
    "Name": "Studentenstadt Freimann ",
    "Straße": "Christoph-Probst-Straße 10",
    "PLZ": 80805,
    "Ort": "München",
    "Latitude": "48.18404",
    "Longitude": "11.61",
    "Typ": "Wohnheim",
    "MieteMinimal": "229,30",
    "MieteMaximal": "463,60",
    "DurchschnittlicheWartezeit": "3",
    "Zimmerarten": ""
  },
  {
    "Name": "Studentenviertel Olympisches Dorf ",
    "Straße": "Helene-Mayer-Ring 9",
    "PLZ": 80809,
    "Ort": "München",
    "Latitude": "48.179858",
    "Longitude": "11.552458",
    "Typ": "Wohnheim",
    "MieteMinimal": "316,70",
    "MieteMaximal": "591,30",
    "DurchschnittlicheWartezeit": "3,5",
    "Zimmerarten": ""
  },
  {
    "Name": "Türkenstraße ",
    "Straße": "Türkenstraße 58",
    "PLZ": 80799,
    "Ort": "München",
    "Latitude": "48.149741",
    "Longitude": "11.575845",
    "Typ": "Wohnheim",
    "MieteMinimal": "267,10",
    "MieteMaximal": "477,60",
    "DurchschnittlicheWartezeit": "4,5",
    "Zimmerarten": ""
  },
  {
    "Name": "Van-Calker-Stiftung ",
    "Straße": "Richard-Wagner-Straße 16",
    "PLZ": 80333,
    "Ort": "München",
    "Latitude": "48.14835",
    "Longitude": "11.56401",
    "Typ": "Wohnheim",
    "MieteMinimal": "267,10",
    "MieteMaximal": "477,60",
    "DurchschnittlicheWartezeit": "4,5",
    "Zimmerarten": ""
  },
  {
    "Name": "Vöttinger Straße (Weihenstephan I) ",
    "Straße": "Vöttinger Straße 49",
    "PLZ": 85354,
    "Ort": "Freising",
    "Latitude": "48.39738",
    "Longitude": "11.72232",
    "Typ": "Wohnheim",
    "MieteMinimal": "262,40",
    "MieteMaximal": "495,60",
    "DurchschnittlicheWartezeit": "1",
    "Zimmerarten": ""
  },
  {
    "Name": "Westendstraße ",
    "Straße": "Westendstraße 300",
    "PLZ": 81377,
    "Ort": "München",
    "Latitude": "48.123625",
    "Longitude": "11.507875",
    "Typ": "Wohnheim",
    "MieteMinimal": "274,80",
    "MieteMaximal": "317,70",
    "DurchschnittlicheWartezeit": "2,5",
    "Zimmerarten": ""
  },
  {
    "Name": "Westerndorfer Straße (Rosenheim II) ",
    "Straße": "Westerndorfer Str. 47a-m",
    "PLZ": 83024,
    "Ort": "Rosenheim",
    "Latitude": "47.87025",
    "Longitude": "12.108752",
    "Typ": "Wohnheim",
    "MieteMinimal": "231,60",
    "MieteMaximal": "460,10",
    "DurchschnittlicheWartezeit": "1,5",
    "Zimmerarten": ""
  }
]